[{"OBJECT_NAME":"DIRECTV 11","OBJECT_ID":"2008-013A","EPOCH":"2026-03-05T15:14:04.553952","MEAN_MOTION":1.00271456,"ECCENTRICITY":2.44e-5,"INCLINATION":0.0182,"RA_OF_ASC_NODE":329.9501,"ARG_OF_PERICENTER":2.1898,"MEAN_ANOMALY":320.5436,"EPHEMERIS_TYPE":0,"CLASSIFICATION_TYPE":"U","NORAD_CAT_ID":32729,"ELEMENT_SET_NO":999,"REV_AT_EPOCH":4455,"BSTAR":0,"MEAN_MOTION_DOT":-1.33e-6,"MEAN_MOTION_DDOT":0},{"OBJECT_NAME":"GALAXY 18 (G-18)","OBJECT_ID":"2008-024A","EPOCH":"2026-03-05T15:07:27.689376","MEAN_MOTION":1.00271374,"ECCENTRICITY":0.0003225,"INCLINATION":0.0231,"RA_OF_ASC_NODE":159.1537,"ARG_OF_PERICENTER":211.5604,"MEAN_ANOMALY":256.53,"EPHEMERIS_TYPE":0,"CLASSIFICATION_TYPE":"U","NORAD_CAT_ID":32951,"ELEMENT_SET_NO":999,"REV_AT_EPOCH":4481,"BSTAR":0,"MEAN_MOTION_DOT":0,"MEAN_MOTION_DDOT":0},{"OBJECT_NAME":"INTELSAT 25 (IS-25)","OBJECT_ID":"2008-034A","EPOCH":"2026-03-05T13:17:42.384192","MEAN_MOTION":1.00272573,"ECCENTRICITY":0.0003799,"INCLINATION":2.4404,"RA_OF_ASC_NODE":81.6047,"ARG_OF_PERICENTER":235.6948,"MEAN_ANOMALY":13.9151,"EPHEMERIS_TYPE":0,"CLASSIFICATION_TYPE":"U","NORAD_CAT_ID":33153,"ELEMENT_SET_NO":999,"REV_AT_EPOCH":6465,"BSTAR":0,"MEAN_MOTION_DOT":-2.3e-6,"MEAN_MOTION_DDOT":0},{"OBJECT_NAME":"GALAXY 19 (G-19)","OBJECT_ID":"2008-045A","EPOCH":"2026-03-05T13:32:06.830016","MEAN_MOTION":1.00270628,"ECCENTRICITY":0.0002755,"INCLINATION":0.0463,"RA_OF_ASC_NODE":262.5202,"ARG_OF_PERICENTER":82.2984,"MEAN_ANOMALY":284.4951,"EPHEMERIS_TYPE":0,"CLASSIFICATION_TYPE":"U","NORAD_CAT_ID":33376,"ELEMENT_SET_NO":999,"REV_AT_EPOCH":6386,"BSTAR":0,"MEAN_MOTION_DOT":-1.46e-6,"MEAN_MOTION_DDOT":0},{"OBJECT_NAME":"FM-5","OBJECT_ID":"2009-034A","EPOCH":"2026-03-05T13:35:14.032032","MEAN_MOTION":1.00272163,"ECCENTRICITY":8.71e-5,"INCLINATION":0.038,"RA_OF_ASC_NODE":271.4834,"ARG_OF_PERICENTER":304.99,"MEAN_ANOMALY":64.4559,"EPHEMERIS_TYPE":0,"CLASSIFICATION_TYPE":"U","NORAD_CAT_ID":35493,"ELEMENT_SET_NO":999,"REV_AT_EPOCH":4560,"BSTAR":0,"MEAN_MOTION_DOT":-2.07e-6,"MEAN_MOTION_DDOT":0},{"OBJECT_NAME":"INTELSAT 14 (IS-14)","OBJECT_ID":"2009-064A","EPOCH":"2026-03-05T10:21:40.092192","MEAN_MOTION":1.00278075,"ECCENTRICITY":0.0002471,"INCLINATION":0.0236,"RA_OF_ASC_NODE":93.091,"ARG_OF_PERICENTER":254.9594,"MEAN_ANOMALY":285.5324,"EPHEMERIS_TYPE":0,"CLASSIFICATION_TYPE":"U","NORAD_CAT_ID":36097,"ELEMENT_SET_NO":999,"REV_AT_EPOCH":5956,"BSTAR":0,"MEAN_MOTION_DOT":-2.81e-6,"MEAN_MOTION_DDOT":0},{"OBJECT_NAME":"INTELSAT 15 (IS-15)","OBJECT_ID":"2009-067A","EPOCH":"2026-03-05T16:06:51.991776","MEAN_MOTION":1.0027047,"ECCENTRICITY":0.0002288,"INCLINATION":0.019,"RA_OF_ASC_NODE":170.1507,"ARG_OF_PERICENTER":188.6172,"MEAN_ANOMALY":131.5097,"EPHEMERIS_TYPE":0,"CLASSIFICATION_TYPE":"U","NORAD_CAT_ID":36106,"ELEMENT_SET_NO":999,"REV_AT_EPOCH":4019,"BSTAR":0,"MEAN_MOTION_DOT":0,"MEAN_MOTION_DDOT":0},{"OBJECT_NAME":"DIRECTV 12","OBJECT_ID":"2009-075A","EPOCH":"2026-03-05T15:13:12.137664","MEAN_MOTION":1.0027203,"ECCENTRICITY":3.12e-5,"INCLINATION":0.0195,"RA_OF_ASC_NODE":333.7732,"ARG_OF_PERICENTER":42,"MEAN_ANOMALY":273.1725,"EPHEMERIS_TYPE":0,"CLASSIFICATION_TYPE":"U","NORAD_CAT_ID":36131,"ELEMENT_SET_NO":999,"REV_AT_EPOCH":4551,"BSTAR":0,"MEAN_MOTION_DOT":-1.11e-6,"MEAN_MOTION_DDOT":0},{"OBJECT_NAME":"INTELSAT 16 (IS-16)","OBJECT_ID":"2010-006A","EPOCH":"2026-03-05T13:38:06.256608","MEAN_MOTION":1.00272775,"ECCENTRICITY":0.0002026,"INCLINATION":0.0216,"RA_OF_ASC_NODE":114.3279,"ARG_OF_PERICENTER":235.6262,"MEAN_ANOMALY":301.6599,"EPHEMERIS_TYPE":0,"CLASSIFICATION_TYPE":"U","NORAD_CAT_ID":36397,"ELEMENT_SET_NO":999,"REV_AT_EPOCH":5861,"BSTAR":0,"MEAN_MOTION_DOT":-2.52e-6,"MEAN_MOTION_DDOT":0},{"OBJECT_NAME":"XM-5","OBJECT_ID":"2010-053A","EPOCH":"2026-03-05T15:09:42.473376","MEAN_MOTION":1.00271669,"ECCENTRICITY":0.0003485,"INCLINATION":0.0658,"RA_OF_ASC_NODE":274.3984,"ARG_OF_PERICENTER":253.1594,"MEAN_ANOMALY":108.0167,"EPHEMERIS_TYPE":0,"CLASSIFICATION_TYPE":"U","NORAD_CAT_ID":37185,"ELEMENT_SET_NO":999,"REV_AT_EPOCH":5644,"BSTAR":0,"MEAN_MOTION_DOT":-3.0e-7,"MEAN_MOTION_DDOT":0},{"OBJECT_NAME":"INTELSAT 17 (IS-17)","OBJECT_ID":"2010-065B","EPOCH":"2026-03-05T14:18:39.868128","MEAN_MOTION":1.0027273,"ECCENTRICITY":0.0002487,"INCLINATION":0.017,"RA_OF_ASC_NODE":189.2689,"ARG_OF_PERICENTER":160.5209,"MEAN_ANOMALY":94.1881,"EPHEMERIS_TYPE":0,"CLASSIFICATION_TYPE":"U","NORAD_CAT_ID":37238,"ELEMENT_SET_NO":999,"REV_AT_EPOCH":5220,"BSTAR":0,"MEAN_MOTION_DOT":-9.0e-8,"MEAN_MOTION_DDOT":0},{"OBJECT_NAME":"INTELSAT 28 (IS-28)","OBJECT_ID":"2011-016A","EPOCH":"2026-03-05T13:19:17.800896","MEAN_MOTION":1.00272146,"ECCENTRICITY":0.0004629,"INCLINATION":1.5384,"RA_OF_ASC_NODE":83.9689,"ARG_OF_PERICENTER":259.8932,"MEAN_ANOMALY":347.5383,"EPHEMERIS_TYPE":0,"CLASSIFICATION_TYPE":"U","NORAD_CAT_ID":37392,"ELEMENT_SET_NO":999,"REV_AT_EPOCH":5224,"BSTAR":0,"MEAN_MOTION_DOT":-2.32e-6,"MEAN_MOTION_DDOT":0},{"OBJECT_NAME":"INTELSAT 18 (IS-18)","OBJECT_ID":"2011-056A","EPOCH":"2026-03-05T17:29:38.583456","MEAN_MOTION":1.00274159,"ECCENTRICITY":0.0001928,"INCLINATION":0.0398,"RA_OF_ASC_NODE":267.8263,"ARG_OF_PERICENTER":73.9982,"MEAN_ANOMALY":264.0266,"EPHEMERIS_TYPE":0,"CLASSIFICATION_TYPE":"U","NORAD_CAT_ID":37834,"ELEMENT_SET_NO":999,"REV_AT_EPOCH":5277,"BSTAR":0,"MEAN_MOTION_DOT":4.6e-7,"MEAN_MOTION_DDOT":0},{"OBJECT_NAME":"INTELSAT 22 (IS-22)","OBJECT_ID":"2012-011A","EPOCH":"2026-03-05T16:03:07.351776","MEAN_MOTION":1.00271324,"ECCENTRICITY":0.0001656,"INCLINATION":0.0024,"RA_OF_ASC_NODE":173.587,"ARG_OF_PERICENTER":191.1085,"MEAN_ANOMALY":111.5868,"EPHEMERIS_TYPE":0,"CLASSIFICATION_TYPE":"U","NORAD_CAT_ID":38098,"ELEMENT_SET_NO":999,"REV_AT_EPOCH":615,"BSTAR":0,"MEAN_MOTION_DOT":-6.5e-7,"MEAN_MOTION_DDOT":0},{"OBJECT_NAME":"INTELSAT 19 (IS-19)","OBJECT_ID":"2012-030A","EPOCH":"2026-03-05T13:47:38.794848","MEAN_MOTION":1.00265112,"ECCENTRICITY":0.0003028,"INCLINATION":0.0248,"RA_OF_ASC_NODE":145.0136,"ARG_OF_PERICENTER":212.2815,"MEAN_ANOMALY":178.9261,"EPHEMERIS_TYPE":0,"CLASSIFICATION_TYPE":"U","NORAD_CAT_ID":38356,"ELEMENT_SET_NO":999,"REV_AT_EPOCH":4941,"BSTAR":0,"MEAN_MOTION_DOT":0,"MEAN_MOTION_DDOT":0},{"OBJECT_NAME":"INTELSAT 20 (IS-20)","OBJECT_ID":"2012-043A","EPOCH":"2026-03-05T13:22:09.737760","MEAN_MOTION":1.00271907,"ECCENTRICITY":0.0002357,"INCLINATION":0.019,"RA_OF_ASC_NODE":140.1706,"ARG_OF_PERICENTER":26.137,"MEAN_ANOMALY":266.0165,"EPHEMERIS_TYPE":0,"CLASSIFICATION_TYPE":"U","NORAD_CAT_ID":38740,"ELEMENT_SET_NO":999,"REV_AT_EPOCH":4970,"BSTAR":0,"MEAN_MOTION_DOT":-3.2e-7,"MEAN_MOTION_DDOT":0},{"OBJECT_NAME":"INTELSAT 21 (IS-21)","OBJECT_ID":"2012-045A","EPOCH":"2026-03-05T08:35:11.417856","MEAN_MOTION":1.00270471,"ECCENTRICITY":0.000178,"INCLINATION":0.0301,"RA_OF_ASC_NODE":254.851,"ARG_OF_PERICENTER":99.0784,"MEAN_ANOMALY":239.9498,"EPHEMERIS_TYPE":0,"CLASSIFICATION_TYPE":"U","NORAD_CAT_ID":38749,"ELEMENT_SET_NO":999,"REV_AT_EPOCH":4948,"BSTAR":0,"MEAN_MOTION_DOT":-2.93e-6,"MEAN_MOTION_DDOT":0}]
