DIRECTV 11              
1 32729U 08013A   26064.63477493 -.00000133  00000+0  00000+0 0  9992
2 32729   0.0182 329.9501 0000244   2.1898 320.5436  1.00271456 44550
GALAXY 18 (G-18)        
1 32951U 08024A   26064.63018159  .00000000  00000+0  00000+0 0  9993
2 32951   0.0231 159.1537 0003225 211.5604 256.5300  1.00271374 44813
INTELSAT 25 (IS-25)     
1 33153U 08034A   26064.55396278 -.00000230  00000+0  00000+0 0  9997
2 33153   2.4404  81.6047 0003799 235.6948  13.9151  1.00272573 64650
GALAXY 19 (G-19)        
1 33376U 08045A   26064.56396794 -.00000146  00000+0  00000+0 0  9996
2 33376   0.0463 262.5202 0002755  82.2984 284.4951  1.00270628 63860
FM-5                    
1 35493U 09034A   26064.56613463 -.00000207  00000+0  00000+0 0  9990
2 35493   0.0380 271.4834 0000871 304.9900  64.4559  1.00272163 45607
INTELSAT 14 (IS-14)     
1 36097U 09064A   26064.43171403 -.00000281  00000+0  00000+0 0  9995
2 36097   0.0236  93.0910 0002471 254.9594 285.5324  1.00278075 59566
INTELSAT 15 (IS-15)     
1 36106U 09067A   26064.67143509  .00000000  00000+0  00000+0 0  9999
2 36106   0.0190 170.1507 0002288 188.6172 131.5097  1.00270470 40193
DIRECTV 12              
1 36131U 09075A   26064.63416826 -.00000111  00000+0  00000+0 0  9991
2 36131   0.0195 333.7732 0000312  42.0000 273.1725  1.00272030 45518
INTELSAT 16 (IS-16)     
1 36397U 10006A   26064.56812797 -.00000252  00000+0  00000+0 0  9996
2 36397   0.0216 114.3279 0002026 235.6262 301.6599  1.00272775 58616
XM-5                    
1 37185U 10053A   26064.63174159 -.00000030  00000+0  00000+0 0  9999
2 37185   0.0658 274.3984 0003485 253.1594 108.0167  1.00271669 56445
INTELSAT 17 (IS-17)     
1 37238U 10065B   26064.59629477 -.00000009  00000+0  00000+0 0  9990
2 37238   0.0170 189.2689 0002487 160.5209  94.1881  1.00272730 52202
INTELSAT 28 (IS-28)     
1 37392U 11016A   26064.55506714 -.00000232  00000+0  00000+0 0  9990
2 37392   1.5384  83.9689 0004629 259.8932 347.5383  1.00272146 52248
INTELSAT 18 (IS-18)     
1 37834U 11056A   26064.72891879  .00000046  00000+0  00000+0 0  9995
2 37834   0.0398 267.8263 0001928  73.9982 264.0266  1.00274159 52775
INTELSAT 22 (IS-22)     
1 38098U 12011A   26064.66883509 -.00000065  00000+0  00000+0 0  9996
2 38098   0.0024 173.5870 0001656 191.1085 111.5868  1.00271324  6152
INTELSAT 19 (IS-19)     
1 38356U 12030A   26064.57475457  .00000000  00000+0  00000+0 0  9991
2 38356   0.0248 145.0136 0003028 212.2815 178.9261  1.00265112 49415
INTELSAT 20 (IS-20)     
1 38740U 12043A   26064.55705715 -.00000032  00000+0  00000+0 0  9999
2 38740   0.0190 140.1706 0002357  26.1370 266.0165  1.00271907 49702
INTELSAT 21 (IS-21)     
1 38749U 12045A   26064.35777104 -.00000293  00000+0  00000+0 0  9998
2 38749   0.0301 254.8510 0001780  99.0784 239.9498  1.00270471 49486
